{"type":"FeatureCollection","crs":{"type":"name","properties":{"name":"EPSG:4326"}},"features":[{"type":"Feature","id":5,"geometry":{"type":"Polygon","coordinates":[[[-122.334412363808,47.8596020347907],[-122.333117659231,47.859446167061],[-122.331009401794,47.8595177626907],[-122.33095828991,47.8595174948075],[-122.330945657344,47.8595174290773],[-122.330841061912,47.8595168820128],[-122.330736466483,47.8595163348527],[-122.330492153371,47.8595150569424],[-122.3291840985,47.8595082051394],[-122.328373816559,47.8595903747335],[-122.328006735261,47.8596276421341],[-122.32704826855,47.8593370821212],[-122.326694240675,47.8591673196216],[-122.32649899663,47.8590735267355],[-122.326343624639,47.8589988860797],[-122.32634099772,47.8589976240686],[-122.326183002023,47.8589217238456],[-122.325449596285,47.8585693920264],[-122.325449638345,47.8585676507651],[-122.325369096164,47.8585289218442],[-122.32528855413,47.8584901937657],[-122.325314773517,47.8574076097249],[-122.325314763438,47.8574072599148],[-122.325313030899,47.8573502321298],[-122.325311364406,47.8572954038873],[-122.325244195367,47.8565082044479],[-122.325218946671,47.8562122906998],[-122.325205820264,47.8560584552346],[-122.325187705285,47.8558461438356],[-122.325162615229,47.8555520955501],[-122.325142235734,47.8555521842539],[-122.325122846476,47.8553249922039],[-122.325109822664,47.8551723806287],[-122.325097003348,47.8550218543383],[-122.325084184392,47.8548713379362],[-122.325069010679,47.8546935451032],[-122.325049624099,47.8544663772848],[-122.325030237689,47.8542392094581],[-122.32500145533,47.8539017832231],[-122.324986301145,47.8538091069361],[-122.324981719821,47.8537810931027],[-122.324977346011,47.8537543440885],[-122.324968390897,47.85369958124],[-122.324963866144,47.853671906714],[-122.324956709207,47.8536149325919],[-122.324939665246,47.8534125485606],[-122.324938482415,47.8533984880564],[-122.324919835873,47.8531771165217],[-122.324912465451,47.853157230917],[-122.324906189972,47.8530563271426],[-122.324898513312,47.8529328978387],[-122.324899049325,47.8529305330111],[-122.324896439845,47.8528995598729],[-122.324879168611,47.8526944656165],[-122.324874542111,47.8526395383324],[-122.324867620556,47.8525573608217],[-122.324860698582,47.8524751680226],[-122.324858721197,47.8524516622571],[-122.324858244128,47.8524460028421],[-122.324846899248,47.852311215444],[-122.324838814594,47.8522151471898],[-122.324835210899,47.8521720640994],[-122.324816936169,47.8519551262768],[-122.324798327854,47.8517340249845],[-122.324786985646,47.8515992267455],[-122.324775276218,47.851460074765],[-122.324757038984,47.8512433541372],[-122.324732448388,47.8509512647854],[-122.324726685152,47.8508827954463],[-122.3247209207,47.8508143297209],[-122.324701286553,47.8505811062661],[-122.324697417197,47.8505351479342],[-122.324676990384,47.8502923973223],[-122.324672527809,47.8502391564218],[-122.324670266128,47.8502121765304],[-122.324666843454,47.8501573612684],[-122.324667596049,47.8501025500102],[-122.324667971921,47.8500750832143],[-122.324676249036,47.8497902439724],[-122.324682225074,47.8495845099184],[-122.324688201066,47.8493787758602],[-122.324693678073,47.8491901999591],[-122.324700131465,47.8489680483761],[-122.324700801586,47.8489402655789],[-122.324702143074,47.8488846504903],[-122.324703545705,47.8488265175406],[-122.324704205866,47.8487991315937],[-122.324745929652,47.8488042402887],[-122.324820710668,47.8488238410225],[-122.324907335158,47.8488465464014],[-122.326850159531,47.8492481072246],[-122.326967144873,47.8492655403922],[-122.327077950685,47.8492928957495],[-122.327182406784,47.8493298777734],[-122.327280254793,47.8493767012631],[-122.327367855131,47.8494319609589],[-122.327442434868,47.8494935332012],[-122.327504260477,47.8495612049268],[-122.327552944502,47.8496350738785],[-122.327638880864,47.8497393155424],[-122.327639171586,47.8497180777192],[-122.327645781448,47.8492344081125],[-122.327659839603,47.8487303714563],[-122.327670290556,47.8483460810559],[-122.327795227671,47.8483490770671],[-122.327812681479,47.8483494947916],[-122.328342124704,47.8483621874481],[-122.328377251716,47.8483630297538],[-122.328724024269,47.8483713410302],[-122.328871237851,47.8483748693802],[-122.329069372664,47.8483796177144],[-122.329111863183,47.8483806360226],[-122.329472313148,47.8483892734335],[-122.32968167788,47.8483942902404],[-122.329764180817,47.8483962661684],[-122.330271655415,47.848407841314],[-122.330344468178,47.8484095020169],[-122.330373471841,47.8484101630177],[-122.330414118201,47.8484110907452],[-122.330421874288,47.8481041022238],[-122.330427665805,47.8478732217732],[-122.330432477181,47.8476813480013],[-122.330437289832,47.847489473309],[-122.330443751856,47.8472318139099],[-122.330447181511,47.8470950620203],[-122.330455637016,47.8467579116633],[-122.330457715929,47.8466750389185],[-122.330458386818,47.846648268975],[-122.330456093528,47.8466119256797],[-122.3304534531,47.846570091304],[-122.330398584592,47.8457007538369],[-122.33035582627,47.8450232547152],[-122.330346584742,47.8448768361769],[-122.330305613179,47.8448762122856],[-122.330026820371,47.8448719628779],[-122.329701112075,47.8448669982737],[-122.32958045412,47.8448651583939],[-122.328985691476,47.8448560893007],[-122.328395100275,47.8448470813013],[-122.328160507981,47.8448435014453],[-122.327844122456,47.8448386741158],[-122.327744731161,47.8448371569682],[-122.327647055175,47.8448356667874],[-122.32734175643,47.8448258946917],[-122.326742120692,47.844806698719],[-122.326392575359,47.8447955068753],[-122.326161279634,47.844788101565],[-122.325876452992,47.8447789811767],[-122.325840875502,47.8447776303483],[-122.325489912335,47.8447660053652],[-122.325088279309,47.8447527043523],[-122.325027273472,47.8447506838794],[-122.324945922558,47.844747989693],[-122.324946311383,47.8447333698138],[-122.324921693886,47.8447334796531],[-122.324864840072,47.8447337330623],[-122.32486452073,47.8447337345305],[-122.324822470276,47.8447339215942],[-122.32433346854,47.8447360956547],[-122.323722522301,47.8447387395044],[-122.323195577002,47.8447410175033],[-122.323111574689,47.8447413810057],[-122.322930916675,47.8447437939362],[-122.322385052756,47.8447517851695],[-122.322359409881,47.8447521597007],[-122.322304493746,47.8447524126823],[-122.321731117319,47.8447538026209],[-122.321401262759,47.8447545888929],[-122.320994035347,47.8447555482182],[-122.320505360715,47.8447566842022],[-122.320041894105,47.844757751111],[-122.319744032466,47.8447584313345],[-122.319716075496,47.8447584953188],[-122.319689604441,47.844758556167],[-122.319648878293,47.8447586494403],[-122.319582647158,47.8447587999567],[-122.319506428933,47.8447589741345],[-122.319582116311,47.8446495252185],[-122.319650543623,47.8445505735438],[-122.319714128308,47.8444586242562],[-122.319742526931,47.8444200762393],[-122.319787894759,47.844358497462],[-122.319884424461,47.8442274731199],[-122.319944116064,47.8441639420872],[-122.320013827462,47.8440982305264],[-122.320086435516,47.8440373039613],[-122.320162581707,47.8439801860803],[-122.320241591119,47.8439270601771],[-122.320326398829,47.8438758963635],[-122.320415291052,47.8438279295746],[-122.32050805913,47.8437831993993],[-122.32059295207,47.8437466103799],[-122.320679256296,47.8437134744617],[-122.320839326045,47.8436554925279],[-122.321003726247,47.8435964347637],[-122.321171984805,47.8435289378269],[-122.321309469676,47.8434647595337],[-122.321440601357,47.8433948569085],[-122.321564833609,47.843319520457],[-122.321680850297,47.8432396381458],[-122.321785237577,47.8431581997248],[-122.321882696283,47.8430719864339],[-122.321943416838,47.843014677783],[-122.321976891812,47.8429830888866],[-122.322030688466,47.8429323231474],[-122.322087037575,47.842879148309],[-122.322324774101,47.8426548036926],[-122.322334678535,47.8426454565299],[-122.322424748438,47.8425605453588],[-122.322685207892,47.8423151403867],[-122.322940819269,47.842074185286],[-122.322999983405,47.8420184094393],[-122.323400710989,47.8416396682751],[-122.323431924526,47.8416101675779],[-122.323553345912,47.841488324109],[-122.323672767949,47.8413519979192],[-122.323779242441,47.8412124192778],[-122.323870562304,47.8410732675575],[-122.323870728091,47.841073270793],[-122.324004828478,47.8408516952771],[-122.324053999716,47.8407704494233],[-122.324194179169,47.8405388259669],[-122.32434575959,47.8402883618176],[-122.324398586749,47.8402010723083],[-122.324416669019,47.8401711947749],[-122.324543210971,47.8399621000726],[-122.324714607186,47.8396788861814],[-122.3247460706,47.8396268955718],[-122.324754309295,47.8396125420866],[-122.324816752624,47.8394991079066],[-122.324867875297,47.8393947660931],[-122.324893960925,47.8393355148226],[-122.324909783417,47.8392953456445],[-122.32492788714,47.8392493883875],[-122.324948362643,47.8391864949928],[-122.324955544197,47.8391644349674],[-122.32496916334,47.839122599699],[-122.325002055853,47.8389915798675],[-122.325011170787,47.8389399123367],[-122.325052569292,47.8387052291362],[-122.325072488569,47.8385923129173],[-122.325073620224,47.8385784353939],[-122.325083295011,47.8384598136149],[-122.325103514678,47.8382032335998],[-122.325122699177,47.8379345621387],[-122.325123841028,47.8379153786712],[-122.32515091308,47.8374607956531],[-122.325169741744,47.8371446140092],[-122.325188130069,47.8368358381648],[-122.32520383851,47.8365720437436],[-122.325217495483,47.8363427107822],[-122.325217367531,47.836236979475],[-122.325223860714,47.8361646788381],[-122.325235454424,47.8360938373295],[-122.325252185521,47.8360234622133],[-122.325274215884,47.8359531438572],[-122.325302140462,47.8358718076745],[-122.325312673998,47.835843680165],[-122.325332694762,47.8357893702324],[-122.325378076612,47.8357075209469],[-122.325432251535,47.8356244305453],[-122.325486616156,47.8355523396844],[-122.325546509954,47.8354822627609],[-122.325634683556,47.8353922917224],[-122.325706815868,47.8353276512792],[-122.325810616466,47.8352455858785],[-122.325893910093,47.8351873468019],[-122.326011790948,47.8351144099258],[-122.326383398437,47.8349085546005],[-122.326792756234,47.8346796518472],[-122.327495398589,47.8342880097742],[-122.327545080634,47.8342602265969],[-122.327628449319,47.834213605299],[-122.327725324974,47.8341585364333],[-122.327822694906,47.8340999984753],[-122.327841951653,47.8340884216368],[-122.327842216923,47.8340882616381],[-122.327899368544,47.8340539026292],[-122.327962519521,47.8340159027288],[-122.32797500402,47.8340077636331],[-122.328184904201,47.8338709172801],[-122.328234485515,47.8338361038696],[-122.328360147027,47.8337335955418],[-122.328485434703,47.8336417152859],[-122.328607489017,47.8335479016804],[-122.328726238827,47.8334522357305],[-122.328841623004,47.8333547749211],[-122.328966865203,47.8332434688321],[-122.329087505718,47.8331302248254],[-122.329256211748,47.832966478803],[-122.329296602665,47.8329216386688],[-122.329316088085,47.8329000082905],[-122.329419392648,47.832784887594],[-122.329488718488,47.8327003337379],[-122.329524389924,47.8326568273346],[-122.329571647127,47.8325990653589],[-122.329601268817,47.8325608297083],[-122.329627260573,47.8325268993667],[-122.329673207666,47.8324668506336],[-122.329822924748,47.8322711827934],[-122.329850359645,47.8322353281532],[-122.330158075718,47.8318331636823],[-122.330525087393,47.8313534948687],[-122.330585516613,47.8312745156001],[-122.330632219707,47.831213474181],[-122.330646175296,47.8311956700286],[-122.33085601944,47.8309219896978],[-122.330926385613,47.8308385592486],[-122.331006388559,47.8307591702834],[-122.331095563454,47.8306843353468],[-122.331192048011,47.8306154435158],[-122.331263809262,47.8305706898081],[-122.331339212388,47.8305286671661],[-122.331413120888,47.8304920661448],[-122.331495664659,47.8304555920545],[-122.331626432986,47.8304066963959],[-122.331739792393,47.8303744887844],[-122.331862977624,47.8303504545848],[-122.331986468907,47.8303367283156],[-122.332073915051,47.8303329546215],[-122.332150803095,47.8303336167176],[-122.3322436913,47.8303394259878],[-122.332335474105,47.8303506643571],[-122.332425453032,47.8303672465338],[-122.332512943118,47.8303890465693],[-122.332580696393,47.8304101330225],[-122.332662044884,47.8304408799508],[-122.332724064251,47.8304688434061],[-122.332743774263,47.8304739364877],[-122.333106227816,47.8306403418571],[-122.333408974683,47.8307793338251],[-122.333745361549,47.8309337684084],[-122.333865359814,47.8309854894009],[-122.333989614099,47.8310324359922],[-122.334140014169,47.8310811450271],[-122.334294981415,47.8311228606823],[-122.334453800785,47.8311573899223],[-122.334617492906,47.8311848245748],[-122.334740275734,47.8312002228234],[-122.334864105299,47.83121139977],[-122.334991909952,47.8312184437731],[-122.335119112473,47.8312209831659],[-122.335244465867,47.8312191395924],[-122.335487089746,47.8312113922481],[-122.335599012291,47.8312097293338],[-122.335708883095,47.8312118104217],[-122.335820490487,47.8312177080539],[-122.335931392687,47.8312273895618],[-122.336058767103,47.8312416564034],[-122.336372714496,47.8312984842435],[-122.336905062091,47.831415080418],[-122.337664811828,47.8315814791128],[-122.337664033998,47.831494823877],[-122.337708979591,47.831504667533],[-122.337745623963,47.8315126935177],[-122.337744988756,47.8314420438504],[-122.337736889653,47.8305397294423],[-122.337736644832,47.8305124784405],[-122.337734162107,47.8302358801993],[-122.33773307394,47.8301146592799],[-122.337720436268,47.828706772732],[-122.33769173717,47.8284750686027],[-122.3376104714,47.8278189558162],[-122.337586061422,47.8276901425235],[-122.337553271753,47.8275882592629],[-122.337545216463,47.8275632314268],[-122.337488206459,47.8274391878241],[-122.337415418298,47.827318956576],[-122.337327371581,47.8272034529026],[-122.337224717129,47.8270935570073],[-122.337108230012,47.8269901042737],[-122.337032063263,47.8269314551786],[-122.33696657763,47.8268856241922],[-122.336191441066,47.8263682740811],[-122.336126862664,47.8263207403532],[-122.336069507115,47.8262691893509],[-122.336019919099,47.8262141158975],[-122.335977775324,47.8261547829856],[-122.335945231739,47.826094227202],[-122.335921223963,47.8260304789376],[-122.335906775479,47.8259654354847],[-122.335902025394,47.8259010390487],[-122.335901692324,47.8255737057732],[-122.335901191782,47.8250806462251],[-122.335899094589,47.8230146943213],[-122.335897869841,47.8218092171619],[-122.336020071684,47.8218079104614],[-122.33603826314,47.8218079527753],[-122.336203258077,47.8218083401302],[-122.336366011492,47.8218087225499],[-122.336528714145,47.8218091045063],[-122.33669136203,47.8218094860519],[-122.336853877676,47.8218098673072],[-122.336972716687,47.821810145753],[-122.337016574969,47.8218102477398],[-122.33719963186,47.8218106775158],[-122.337199918632,47.8215600356487],[-122.337199945881,47.8215365332739],[-122.337203196265,47.8214542977542],[-122.337257822391,47.8214544252352],[-122.337257980038,47.8213721296674],[-122.337258022111,47.8213502436755],[-122.337254108344,47.8209854755151],[-122.337253594702,47.8209375822405],[-122.33724819912,47.8204346201139],[-122.33724605318,47.8202340972005],[-122.337243973429,47.8200398589096],[-122.337242892505,47.8199391387594],[-122.337240462609,47.8197125815865],[-122.337239658888,47.8196376150993],[-122.337185271083,47.8196377633735],[-122.3371804463,47.8192282296236],[-122.337178120755,47.819030850456],[-122.337175538157,47.8188115397487],[-122.337174568864,47.8187292985806],[-122.337174979236,47.8186470545443],[-122.336974035372,47.8186469862391],[-122.336674423439,47.8186468845708],[-122.336377502894,47.8186467826924],[-122.33599049198,47.8186466478633],[-122.335868378673,47.8186466049677],[-122.335863074094,47.818135897916],[-122.335859801101,47.817820664912],[-122.335856795544,47.8175312864479],[-122.335851166895,47.8169892604842],[-122.335843327049,47.8162343123517],[-122.335842840008,47.8161873821898],[-122.335842330422,47.816138338267],[-122.335840956348,47.8160060325505],[-122.335831527329,47.8150979863346],[-122.335822957243,47.8142726783656],[-122.335822530295,47.8142315516184],[-122.335822103347,47.8141904248711],[-122.335822100351,47.8141900911593],[-122.335802475609,47.8123237649786],[-122.335799576298,47.8120480732914],[-122.335784815678,47.8106442252536],[-122.335783951092,47.8105619673784],[-122.335664389162,47.8105609670685],[-122.333005680947,47.8105386809322],[-122.330235089615,47.8105156545358],[-122.33022748237,47.8105155913974],[-122.329542311605,47.8105098866742],[-122.329260659059,47.8105075401308],[-122.329260152854,47.8104871312892],[-122.329258804085,47.810432807852],[-122.329257936627,47.8103978455511],[-122.329250560839,47.8101005351292],[-122.32924517258,47.8098833816209],[-122.329242343762,47.8097693505688],[-122.329239582978,47.8096580929843],[-122.329238060806,47.8095967414579],[-122.328814769091,47.8095930902105],[-122.328805328693,47.8091719600873],[-122.328796278874,47.8087682509454],[-122.328369213383,47.8087632081871],[-122.32836692359,47.8087631769846],[-122.328366849569,47.8087607031603],[-122.327942745333,47.8087574840165],[-122.327518358798,47.8087544747987],[-122.327396493765,47.8087536102685],[-122.327355585792,47.8087533195103],[-122.327377980132,47.8094284461276],[-122.327303982859,47.8094274294575],[-122.326464547634,47.8094207337422],[-122.326461219082,47.8090918791236],[-122.326454567136,47.808434761729],[-122.325643554996,47.8084262133051],[-122.325418845698,47.8084238439456],[-122.326554143871,47.8068457283233],[-122.326612222991,47.8067634115291],[-122.326667950502,47.8066860129607],[-122.326694499417,47.8066491403963],[-122.326700205468,47.8066412168051],[-122.326932553248,47.80631851396],[-122.326936329392,47.8063132694051],[-122.327180984794,47.8059734701387],[-122.327210610569,47.8059323218953],[-122.327363074723,47.8057205631097],[-122.327386213792,47.805688424574],[-122.327475694828,47.8055641432162],[-122.327535978972,47.8054804116801],[-122.327574772676,47.8054265292375],[-122.327709850987,47.8052389140974],[-122.327812463515,47.8050963904201],[-122.327857042851,47.8050371452329],[-122.328014191095,47.8048191250733],[-122.328066559419,47.8047464710142],[-122.328224876792,47.8045268240564],[-122.328331113047,47.8043794341924],[-122.328449535627,47.8042151350809],[-122.328527253624,47.8041073093167],[-122.328755833675,47.8037901734573],[-122.328760460841,47.8037837536136],[-122.328975801234,47.8034849831933],[-122.329055697052,47.8033741319538],[-122.329099667214,47.8033131256031],[-122.329114493398,47.8032925555333],[-122.329155778815,47.8032352726724],[-122.329158482665,47.8032315219196],[-122.329173543723,47.8032106249098],[-122.329217297956,47.8031499191045],[-122.329349236497,47.802966858043],[-122.329797223942,47.8023452805839],[-122.330024728077,47.8020296151836],[-122.330146559979,47.8018605690602],[-122.33020747499,47.8017760468569],[-122.330268391111,47.8016915237038],[-122.330363451899,47.8015596208958],[-122.330458513511,47.8014277170904],[-122.330465714225,47.8014177253134],[-122.330635462563,47.8011821881618],[-122.330656631863,47.8011528131018],[-122.330926027179,47.8007790050951],[-122.331064871727,47.8005863425403],[-122.331109561195,47.800524330951],[-122.331652960726,47.7997693934631],[-122.331699034338,47.799705382544],[-122.33145448947,47.799702414078],[-122.331438989297,47.7997022260814],[-122.331309897744,47.7997006592564],[-122.330265553443,47.7996879765427],[-122.330262414652,47.7996879376201],[-122.330143486115,47.799686493551],[-122.330143459345,47.7996672991641],[-122.330143370328,47.7996042348625],[-122.330143210446,47.7995219749522],[-122.330143184479,47.799508265408],[-122.330143158512,47.7994945558638],[-122.330141946418,47.7988673292225],[-122.330139847353,47.7977810012148],[-122.330139687949,47.7976987574794],[-122.330137719607,47.7966798490013],[-122.330136481289,47.7960383441327],[-122.330136427161,47.7960109412584],[-122.330136321896,47.7959561003861],[-122.330144547604,47.7958739770297],[-122.330146188953,47.7958575783164],[-122.330154815091,47.7956702901857],[-122.330165897911,47.795557603282],[-122.330181722499,47.7954431009028],[-122.330201873267,47.7953301466965],[-122.33019995205,47.7953270925524],[-122.330223113389,47.7952102108103],[-122.330269592269,47.7950200182377],[-122.330326969249,47.7948303484766],[-122.330388078716,47.794660056589],[-122.330415317213,47.794589481283],[-122.330538195684,47.7942710980089],[-122.330589521728,47.7941381057006],[-122.330605336673,47.7941382950611],[-122.331055195561,47.7941436676526],[-122.331088922099,47.7941440682207],[-122.331384687105,47.7941475823535],[-122.33149570117,47.7941488958041],[-122.331714179591,47.7941514807989],[-122.331998966172,47.7941548369298],[-122.332039645221,47.7941553168955],[-122.332161679547,47.7941567513452],[-122.332283712546,47.794158185682],[-122.332324391496,47.7941586619493],[-122.332853206166,47.7941648612554],[-122.332852372511,47.7940817482891],[-122.332851071843,47.793952019699],[-122.332849980707,47.7938432463312],[-122.332848938016,47.7937392869843],[-122.332847892291,47.793634899467],[-122.332846806346,47.7935265821256],[-122.332845967195,47.7934430014357],[-122.332844672554,47.7933138494039],[-122.332844043448,47.7932511033841],[-122.332842539585,47.7931011445556],[-122.332841782638,47.7930256222982],[-122.332840407162,47.7928884118094],[-122.332838982476,47.7927514844397],[-122.332835612151,47.7924224074051],[-122.332834796247,47.7923401371202],[-122.332835386819,47.7922579383251],[-122.332660953593,47.7922558657731],[-122.332494534368,47.7922538874511],[-122.332347719516,47.7922521427109],[-122.332034485484,47.7922484187895],[-122.3317905384,47.7922455183234],[-122.331485354513,47.7922418887668],[-122.331414285891,47.7922410345662],[-122.331342136871,47.7922401666073],[-122.331412188854,47.7921114783651],[-122.33151026157,47.7919313143849],[-122.33160833227,47.7917511503355],[-122.331706403623,47.7915709861818],[-122.331804474295,47.7913908219415],[-122.33190254295,47.7912106576321],[-122.332000783094,47.7910304918758],[-122.332099013215,47.7908503261551],[-122.33219723462,47.7906701595534],[-122.332295458038,47.7904899937289],[-122.332393603974,47.7903098495165],[-122.332439792652,47.7902250675561],[-122.33247648233,47.7901558645169],[-122.332490516045,47.7901293921547],[-122.332493252881,47.7901242285021],[-122.332576262625,47.7899676517469],[-122.332637840524,47.7898449465051],[-122.33275474615,47.789590976426],[-122.332822728085,47.7894480971043],[-122.332921820602,47.7891827379206],[-122.33300707648,47.7889153230615],[-122.333065248583,47.7886997677732],[-122.333081043772,47.7886402055871],[-122.333138606421,47.7883690305777],[-122.333167402531,47.7881997397913],[-122.333169476329,47.7881710117055],[-122.333173329912,47.788117651677],[-122.333198462948,47.7879275490643],[-122.333257613394,47.7874653373827],[-122.33330877413,47.7862674879741],[-122.333316383346,47.7860893328056],[-122.33332420992,47.7859060956342],[-122.333332168327,47.7857197576036],[-122.332410912687,47.7857104773676],[-122.332409323686,47.7857104577489],[-122.331998797313,47.7857053623151],[-122.331535535874,47.7846842420625],[-122.331179798435,47.7839000980857],[-122.331481659659,47.7837419414548],[-122.331821326258,47.7834015955488],[-122.331903228937,47.7829431619611],[-122.331825237862,47.7824849451198],[-122.33166026552,47.7820892792341],[-122.331422707475,47.7818116324166],[-122.330737526346,47.7814954348937],[-122.329995848778,47.7814453047378],[-122.329453397652,47.7814086376345],[-122.329422971194,47.781363879159],[-122.327747640536,47.7788993781515],[-122.327542582185,47.7786624153081],[-122.327003654452,47.7780396269926],[-122.327098634847,47.7779310367815],[-122.327122787484,47.7779034214884],[-122.327241963825,47.7777671658055],[-122.327243672397,47.7776849290439],[-122.327514509478,47.777688103492],[-122.32765213557,47.7776897169034],[-122.329951422617,47.7777166392739],[-122.33336871334,47.7777565682729],[-122.335336151726,47.7777795092215],[-122.33668375122,47.7777824493708],[-122.336734037372,47.7777825589844],[-122.338031350866,47.7777853736137],[-122.338705163433,47.7777868300528],[-122.338885385291,47.7777872186993],[-122.339204987187,47.7777879068841],[-122.33937894933,47.7777882819679],[-122.339442275501,47.7777884180638],[-122.340720033276,47.7777911605841],[-122.341308490553,47.7777924179961],[-122.341739688173,47.777793338615],[-122.342071929766,47.7777940460728],[-122.343419530013,47.7777969067165],[-122.344767130409,47.7777997514541],[-122.345913634243,47.7778021584878],[-122.346060954506,47.7778024670782],[-122.346103917192,47.7778025571612],[-122.346117114129,47.7778025190165],[-122.346516994778,47.7778013527951],[-122.34685579644,47.7778003643782],[-122.347812406138,47.7777975674748],[-122.34856626432,47.7777953578622],[-122.349095150173,47.7777938043097],[-122.350911167633,47.7777884523354],[-122.351506961451,47.7777866908124],[-122.352354867194,47.7777841769581],[-122.353604540232,47.7777804622274],[-122.354818388283,47.7777768397669],[-122.355964503406,47.7777734079638],[-122.357303364639,47.7777737842622],[-122.361332820932,47.7777748202762],[-122.361461480915,47.7777748513877],[-122.361891240807,47.7777749531792],[-122.36206576144,47.7777749938457],[-122.362945841244,47.7777751955494],[-122.363291548612,47.7777752730935],[-122.363637254648,47.7777753496087],[-122.363982962019,47.7777754250593],[-122.364417331748,47.7777755185036],[-122.36482404654,47.7777756043782],[-122.365212767796,47.7777756846727],[-122.365456796139,47.7777757346783],[-122.365700824482,47.7777757841623],[-122.365944852826,47.7777758331247],[-122.366406473084,47.7777759237794],[-122.366437383186,47.7777759296772],[-122.366619796858,47.7777759653315],[-122.366701137417,47.7777759810854],[-122.366823144583,47.7777769186593],[-122.369277894335,47.7777957557074],[-122.369400120519,47.7777966920798],[-122.370030617376,47.7778015215091],[-122.370132289652,47.7778022992712],[-122.370902882279,47.7778081965921],[-122.371350240233,47.7778116169918],[-122.372098744019,47.7778173369494],[-122.37215975437,47.7778178027786],[-122.37430379188,47.7778341580838],[-122.376888309194,47.7778538199924],[-122.37719092914,47.7778561176318],[-122.377496359175,47.7778584367316],[-122.377496750911,47.7779390158986],[-122.377498710264,47.7783423372341],[-122.377500570388,47.7787252900069],[-122.377501568207,47.7789308988125],[-122.377502567421,47.7791365093955],[-122.377503479097,47.7793241622245],[-122.377504277626,47.7794886488988],[-122.377504425142,47.7795188864284],[-122.377505077521,47.7796531364523],[-122.377505366966,47.7797127065777],[-122.377505876059,47.7798176231226],[-122.377506308824,47.7799065276234],[-122.377506675964,47.7799821106722],[-122.377507249328,47.7801003477853],[-122.377507474513,47.7801465973385],[-122.377508191201,47.7802941688255],[-122.377508273067,47.7803110840029],[-122.377509072987,47.7804755715466],[-122.37750913308,47.7804879898631],[-122.377509871552,47.780640058207],[-122.37751007494,47.7806818099986],[-122.377510670148,47.7808045457647],[-122.377511015499,47.7808756310487],[-122.377511470056,47.7809690324032],[-122.377512547576,47.7811908978668],[-122.377513627198,47.7814131474322],[-122.377514027188,47.7814953916473],[-122.377514156471,47.7815220129835],[-122.37751428941,47.7815494295261],[-122.377515494091,47.7817975304119],[-122.377517059472,47.7821196517936],[-122.377518238407,47.7823622698894],[-122.37751941738,47.7826048888801],[-122.377520615994,47.7828516188224],[-122.377520948118,47.7829201520791],[-122.377521281818,47.7829886934107],[-122.377522480477,47.7832354242452],[-122.377523812042,47.7835095698155],[-122.377524791994,47.783711120649],[-122.377525190685,47.7837933648682],[-122.377526123584,47.7839852662096],[-122.3775265424,47.7840714585464],[-122.37752705649,47.7841771675483],[-122.377527988095,47.7843690698016],[-122.37752965328,47.7847117512761],[-122.377531696318,47.7851323447103],[-122.377531632083,47.7851690973734],[-122.377531568701,47.7852042649108],[-122.377531511172,47.7852371635509],[-122.37753085822,47.7856044240324],[-122.377530089434,47.7860373216599],[-122.37752981098,47.7861943686481],[-122.377529115473,47.7865856177943],[-122.377528670426,47.7868364073478],[-122.377528629111,47.7868597644951],[-122.37752814141,47.7871339112085],[-122.377528058259,47.787181011442],[-122.377527606369,47.7874354714876],[-122.377527167301,47.7876822037008],[-122.377526699459,47.7879457662112],[-122.377526680919,47.7879563503791],[-122.377526194505,47.7882304961525],[-122.377525343285,47.7887091759828],[-122.377525271883,47.788749812351],[-122.377524143117,47.789385257522],[-122.377523840722,47.7895555326647],[-122.377523681453,47.7896447698687],[-122.377522059415,47.7905580780034],[-122.377521499063,47.7908731353988],[-122.377521413074,47.7909218441603],[-122.377520570616,47.791396203845],[-122.37752046284,47.791456956881],[-122.377520452391,47.7914626128718],[-122.377520415307,47.7914830192321],[-122.377519125289,47.7922094773134],[-122.377519057393,47.7922479455627],[-122.37751884519,47.792367278123],[-122.377417134688,47.7923669928585],[-122.376521732336,47.7923644804759],[-122.376175072096,47.7923635054647],[-122.375986170524,47.7923629737943],[-122.375450256283,47.7923614639635],[-122.374964141879,47.792360091633],[-122.374842531533,47.7923597488809],[-122.374845300608,47.7927081320681],[-122.374856335977,47.7941254221664],[-122.37485676395,47.7941802763705],[-122.375549498507,47.7941820967471],[-122.376182479559,47.7941837558929],[-122.376818711773,47.7941854206631],[-122.377529987785,47.7941872779782],[-122.377530087609,47.7942035847591],[-122.377530155436,47.7942146931263],[-122.377530323087,47.7942421082744],[-122.377535205792,47.7950394133798],[-122.377535532045,47.7950928188127],[-122.377536514258,47.7952531061324],[-122.377540409361,47.7958893547739],[-122.377541108787,47.7960035229077],[-122.377544959174,47.7966323044567],[-122.377546056274,47.7968114640195],[-122.377546824663,47.7969370913428],[-122.377546972307,47.7969610549528],[-122.377553093496,47.79796076075],[-122.377554691711,47.7982216961433],[-122.377562795865,47.7995452228245],[-122.377562807396,47.7995470443781],[-122.377563375506,47.799639766662],[-122.377699493917,47.7996402901918],[-122.377738321759,47.7996404398246],[-122.378064446464,47.7996416939149],[-122.378210306227,47.7996422541991],[-122.378673545574,47.7996440338242],[-122.378906120006,47.7996449257543],[-122.379028710064,47.7996453959879],[-122.380126081087,47.7996496000608],[-122.380248864772,47.7996500690613],[-122.380370952783,47.7996505365584],[-122.381591609832,47.7996551974823],[-122.382872549945,47.7996600736901],[-122.382933584631,47.7996603061795],[-122.382933733606,47.799701428972],[-122.382934950019,47.8000348973333],[-122.382936240627,47.8003888497185],[-122.382936308093,47.8004073223125],[-122.382936464019,47.8004502856122],[-122.382937665076,47.8007796654312],[-122.382937744605,47.8008013557689],[-122.382939022302,47.8011519266714],[-122.382939343518,47.8012398637688],[-122.382939692835,47.8013356648821],[-122.382940379744,47.8015241051337],[-122.382941736094,47.8018962017355],[-122.382942077548,47.8019896846536],[-122.382944651205,47.802695497815],[-122.382946787748,47.803281486928],[-122.383214449104,47.8032818519618],[-122.383971968808,47.8032828822704],[-122.385139126211,47.8032844598268],[-122.386312969745,47.803286034401],[-122.387175559666,47.8032871836523],[-122.387555228304,47.803287687878],[-122.388127422627,47.8032884443452],[-122.388317229579,47.8032886949568],[-122.39037848773,47.8032958959944],[-122.390526485514,47.8032964124441],[-122.390666529431,47.8032968995173],[-122.3936068531,47.8033071001762],[-122.394209972555,47.8033091831307],[-122.394453639366,47.8033100242779],[-122.394624566551,47.8033106133323],[-122.394635032322,47.8033106492853],[-122.394738047518,47.8033110051285],[-122.395265806727,47.8033120049577],[-122.397842436367,47.8033168538447],[-122.396687083711,47.8057469375638],[-122.396153702809,47.8068689770266],[-122.393622829888,47.8086940425331],[-122.3910980366,47.8105147786597],[-122.388325928683,47.8125136527401],[-122.386106155646,47.8141140961148],[-122.386083941198,47.8141450810884],[-122.383867345562,47.8178008409743],[-122.382950775808,47.819310031352],[-122.381610464339,47.8215167658943],[-122.381316949374,47.8219999908395],[-122.378445179404,47.8238272136632],[-122.376349353887,47.825156916089],[-122.372234809407,47.8277552836915],[-122.371815023184,47.8280207301852],[-122.370678584697,47.8287393203772],[-122.367065872191,47.8310234954196],[-122.365722392919,47.8318728437858],[-122.363276603226,47.8318682282442],[-122.362691094116,47.8323164298411],[-122.361771461968,47.8330203766712],[-122.36147023179,47.8332509522924],[-122.361121967873,47.8336495144779],[-122.360138158054,47.8347753763032],[-122.35909073887,47.8359613647279],[-122.356474500872,47.8386619202248],[-122.354826604198,47.8398539966154],[-122.352749395762,47.8413565219216],[-122.35238888565,47.8416172808237],[-122.352177344481,47.8417702867177],[-122.351273788118,47.8419633436862],[-122.350875982509,47.8420483369765],[-122.350204558028,47.8421917874736],[-122.349544414983,47.8423328227295],[-122.348996918689,47.8424497885622],[-122.348600355256,47.8425345072699],[-122.348203596634,47.8426192658537],[-122.347806839386,47.8427040230244],[-122.347409607677,47.842779494023],[-122.347010109105,47.8428567694546],[-122.346769974694,47.8428996900159],[-122.346760780869,47.8429013329729],[-122.34661327801,47.8429576037438],[-122.346481785066,47.8430085688448],[-122.346414725045,47.8430381960865],[-122.346352026737,47.8430675523456],[-122.346189691837,47.8431435599819],[-122.345937362471,47.8432709397974],[-122.345740697435,47.8433542533282],[-122.345548746755,47.8434355691031],[-122.34529706194,47.8435421887885],[-122.345051679081,47.8436461382108],[-122.344695906049,47.8437968496793],[-122.344340144147,47.8439475544663],[-122.343984351102,47.8440982693235],[-122.343628611462,47.8442489607479],[-122.343272480351,47.8443998163356],[-122.343185366692,47.8444374772669],[-122.34300999606,47.8446096710645],[-122.342765411837,47.8448311454851],[-122.342733013108,47.8448604828046],[-122.342498488394,47.8450728457921],[-122.34226685741,47.8452825855241],[-122.342009953592,47.8455152076488],[-122.341887432846,47.8456261465211],[-122.341647363609,47.8458435214207],[-122.341580020686,47.8459044977497],[-122.341328878832,47.8461318965226],[-122.341334244301,47.8459051343163],[-122.341337954441,47.8457483439626],[-122.341340154902,47.8456553729939],[-122.341337000724,47.8454136836989],[-122.341336224239,47.8453541918491],[-122.341336867931,47.8452416697662],[-122.340461555274,47.8458184871633],[-122.340075446516,47.8462351881533],[-122.339914456023,47.8462356206971],[-122.339339049268,47.8462354279602],[-122.338720837846,47.8462352176178],[-122.338067686428,47.8462349915981],[-122.337768889913,47.8459065352032],[-122.33724377705,47.845906145005],[-122.33724271901,47.845808717302],[-122.337236397458,47.8457351927665],[-122.337219096687,47.8456376989891],[-122.337199083328,47.8455639155862],[-122.337154448159,47.8454463308888],[-122.33710741353,47.8453533880114],[-122.337035271358,47.8452406865174],[-122.336951488861,47.8451357298009],[-122.336890332179,47.8450704040117],[-122.336837433353,47.8450196869746],[-122.336625518652,47.8449409698384],[-122.336328990766,47.8448308229265],[-122.336036165586,47.8447220497449],[-122.335995669733,47.844707006504],[-122.335994719279,47.8447692764798],[-122.335993768796,47.8448315455559],[-122.33629987526,47.8449452521292],[-122.336724581046,47.8451030112343],[-122.336791424764,47.8451694776631],[-122.336873714757,47.845268143454],[-122.33694291774,47.8453712616219],[-122.336998505756,47.8454780483893],[-122.337032886691,47.8455655730737],[-122.337062976715,47.8456768981535],[-122.337078538076,47.8457895649418],[-122.337080463909,47.8458861455009],[-122.337052138833,47.8459540202651],[-122.337039995925,47.8460092389235],[-122.337036920445,47.8460667645108],[-122.337043137492,47.8461224271349],[-122.337058334868,47.8461773023215],[-122.337086703482,47.8462376042239],[-122.336980393239,47.8462392636087],[-122.337075581997,47.8463224376642],[-122.337451030829,47.8466504926602],[-122.338733055509,47.846655601249],[-122.339221739188,47.8466575441454],[-122.339035617193,47.8468549908255],[-122.338976129658,47.8469197501421],[-122.339167998737,47.8469204792737],[-122.339402653069,47.8469228330956],[-122.339577281853,47.8469248214258],[-122.33969875518,47.8469262037722],[-122.339816197942,47.8469275401532],[-122.339928923019,47.8469288234447],[-122.341150679602,47.8469327229222],[-122.341075254212,47.8470176898497],[-122.340999828574,47.8471026567268],[-122.340848977893,47.847272590312],[-122.340698124912,47.8474425246124],[-122.340547272252,47.8476124577942],[-122.340396417265,47.8477823907918],[-122.340245562625,47.8479523235701],[-122.340187496155,47.8480177331813],[-122.340094705659,47.8481222561642],[-122.339943847704,47.8482921885566],[-122.33979299012,47.8484621216289],[-122.339642130185,47.8486320536178],[-122.339491270596,47.8488019853873],[-122.339340408682,47.8489719169727],[-122.339189547113,47.8491418483386],[-122.339038683245,47.8493117804196],[-122.338887819697,47.849481711382],[-122.338817498553,47.8495609186279],[-122.338736953823,47.8496516421602],[-122.338586088295,47.8498215727191],[-122.338420740236,47.8499926707043],[-122.338253148087,47.8501603975006],[-122.33818323261,47.850232886196],[-122.338181294701,47.8502386817193],[-122.338121707593,47.8503130180221],[-122.338046995426,47.850406220008],[-122.338001440512,47.8504758906492],[-122.337919428545,47.8506013168165],[-122.337911997692,47.8506126820643],[-122.337894109606,47.8506400403316],[-122.337876221501,47.8506673985961],[-122.337822555737,47.8507494733901],[-122.337786778021,47.8508041899108],[-122.337679445729,47.8509683384874],[-122.337614529826,47.851067617565],[-122.337572139503,47.8511324875084],[-122.337500943998,47.8512451487764],[-122.337473093016,47.8512966635793],[-122.33738528165,47.8514608743555],[-122.337297471062,47.8516250850443],[-122.337238536537,47.8517352953505],[-122.337209659918,47.851789295663],[-122.337150725019,47.8518995059223],[-122.337121848218,47.8519535062117],[-122.337111055022,47.8519736884925],[-122.337034034624,47.852117716708],[-122.336975098977,47.8522279268734],[-122.336947324553,47.8522819306048],[-122.336900661809,47.8523726613765],[-122.336864424752,47.8524461563861],[-122.336785754982,47.8526103957371],[-122.336711658801,47.8527746495469],[-122.336641917037,47.8529389171084],[-122.336577089795,47.8531032000613],[-122.336516605033,47.8532674969402],[-122.33646044406,47.8534318070986],[-122.336408561491,47.8535961311401],[-122.336361353025,47.8537604701659],[-122.336411681269,47.8550052206887],[-122.33647267912,47.8559108793176],[-122.336561638674,47.8572316457847],[-122.336686200337,47.8587803782569],[-122.334739454814,47.8591833686147],[-122.334412363808,47.8596020347907]],[[-122.333048454367,47.7778625065739],[-122.332844098346,47.7778601209536],[-122.332734861797,47.7779289241969],[-122.332732398222,47.7780248620941],[-122.33292262582,47.7780270826742],[-122.332956058671,47.7780274729178],[-122.332968000988,47.778006152027],[-122.333048454367,47.7778625065739]],[[-122.356007666796,47.7926937731815],[-122.356005667511,47.792583004473],[-122.356002455432,47.7924056145842],[-122.35600244388,47.7924044938302],[-122.35600097296,47.7923231729459],[-122.355997305012,47.7922400461635],[-122.355982089717,47.7918973915333],[-122.35597357344,47.7917055752286],[-122.355966872563,47.7915546667503],[-122.355965055865,47.7915137580392],[-122.355951658714,47.7912120021885],[-122.356073706025,47.7912117483602],[-122.356073340023,47.791203512857],[-122.356065720044,47.7910314516196],[-122.356059148224,47.7908828983813],[-122.356056997641,47.7908350311766],[-122.356056906409,47.7908330154783],[-122.356056561076,47.7908248471696],[-122.356050771093,47.7906941424668],[-122.356050509867,47.7906882472386],[-122.35604725608,47.7906147676895],[-122.35604699125,47.7906087951433],[-122.356046680223,47.7906017949643],[-122.356044562189,47.7905540352772],[-122.356042596482,47.7905097352398],[-122.356042051795,47.7904974601925],[-122.356041965239,47.7904955128017],[-122.356041108067,47.7904765515571],[-122.356040684414,47.7904671707252],[-122.356038397991,47.7904165858238],[-122.356036302834,47.790369286429],[-122.356035714528,47.7903560259959],[-122.356034038981,47.7903182424276],[-122.356032908423,47.7902927896782],[-122.356029028196,47.7902049310933],[-122.356028166422,47.7901852673179],[-122.356025235025,47.7901189911047],[-122.356023390455,47.7900772695185],[-122.356020297519,47.790007355656],[-122.356020254876,47.7900064035426],[-122.356019177131,47.7899820215182],[-122.35601814075,47.7899585934235],[-122.356018021459,47.7899558494189],[-122.356017826625,47.7899516238721],[-122.356017477593,47.7899440565486],[-122.356016865441,47.7899312111511],[-122.356015895743,47.7899097810901],[-122.356015551815,47.7899020238819],[-122.356014721793,47.7898833501481],[-122.356013759118,47.7898616591078],[-122.356013742293,47.7898612680038],[-122.35601371876,47.7898607393497],[-122.356013655687,47.7898593188144],[-122.356012993901,47.7898444193802],[-122.356012842981,47.7898410073906],[-122.356011732953,47.7898160257597],[-122.356010451206,47.7897871511277],[-122.356009886342,47.7897744157509],[-122.356009392526,47.7897632816238],[-122.356008601309,47.7897454745918],[-122.356008585594,47.7897451212565],[-122.356008513806,47.7897434948278],[-122.356007925435,47.7897302316961],[-122.356007851071,47.7897285630203],[-122.356007722246,47.7897256761055],[-122.356007705897,47.7897253011881],[-122.356007615686,47.7897232746807],[-122.356007572066,47.789722289295],[-122.356007547926,47.789721739958],[-122.356007521157,47.7897211465755],[-122.35600749625,47.7897205711602],[-122.356007489726,47.7897204399048],[-122.356007440283,47.7897193016638],[-122.356007408589,47.7897185860007],[-122.356007363503,47.7897175961364],[-122.356007322643,47.7897166592926],[-122.356007280608,47.789715727862],[-122.35600726315,47.7897153151759],[-122.356007222317,47.7897143792313],[-122.356007117673,47.7897119975723],[-122.356007087166,47.7897113223755],[-122.356006979445,47.7897088813835],[-122.356006932774,47.7897078375641],[-122.356006843766,47.7897058065426],[-122.3560067897,47.7897046017925],[-122.356006702276,47.7897026247262],[-122.356006647708,47.7897014028902],[-122.356006612145,47.7897006009165],[-122.356006586261,47.7896999922289],[-122.356006524245,47.7896986076636],[-122.356006491283,47.7896978488363],[-122.356006413526,47.7896961100365],[-122.356006367978,47.7896950590053],[-122.356006307904,47.7896936951051],[-122.356006230807,47.7896919787867],[-122.356006183107,47.7896908998964],[-122.356006097704,47.7896889461929],[-122.356006038131,47.7896875993785],[-122.356005983854,47.7896863874343],[-122.356005979377,47.789686280441],[-122.356005955818,47.7896857508876],[-122.356005926223,47.789685061285],[-122.35600591451,47.7896847987565],[-122.356005904169,47.7896845829891],[-122.356005870283,47.7896837926878],[-122.356005850909,47.7896833602361],[-122.356005825038,47.7896827974281],[-122.356005796183,47.7896821330046],[-122.356005762825,47.7896813606884],[-122.356005747057,47.7896810055546],[-122.356005712365,47.7896802332562],[-122.356005687854,47.7896796713298],[-122.356005659739,47.7896790320853],[-122.356005632125,47.7896784099267],[-122.356005601434,47.7896777284351],[-122.356005580687,47.7896772492221],[-122.356005568894,47.7896769839958],[-122.35600551912,47.7896758799442],[-122.356005494108,47.7896753009319],[-122.356005481655,47.7896750132243],[-122.356005473177,47.7896748154242],[-122.356005441826,47.7896741114513],[-122.356005375057,47.7896725650205],[-122.356005341079,47.7896717261418],[-122.356005260945,47.7896699064092],[-122.356005225355,47.7896691035363],[-122.356005127604,47.7896668657221],[-122.356005101443,47.7896662930224],[-122.356005014072,47.7896643177546],[-122.356004950829,47.7896628459441],[-122.356004877126,47.7896611997496],[-122.356004758182,47.789658376575],[-122.356004735328,47.7896575528413],[-122.35600460838,47.7896546389133],[-122.356004564206,47.7896536346432],[-122.356004478063,47.7896516557606],[-122.356004395407,47.7896497955794],[-122.356004313345,47.7896479102014],[-122.356004235628,47.7896461273204],[-122.356004162229,47.7896444460372],[-122.356004098656,47.789643008416],[-122.356004032336,47.7896414772726],[-122.356003936487,47.7896393042047],[-122.356003884442,47.7896381228173],[-122.356003809617,47.7896363929744],[-122.35600371674,47.7896342756424],[-122.356003648927,47.7896327391212],[-122.356003578711,47.789631120768],[-122.356003505814,47.7896294565706],[-122.356003425311,47.7896276242485],[-122.356003347277,47.7896258305764],[-122.356003278989,47.7896242778687],[-122.356003188977,47.7896222126756],[-122.356003149306,47.7896213162981],[-122.356003050975,47.7896190587003],[-122.35600300828,47.7896181047885],[-122.35600291016,47.7896158543847],[-122.35600286625,47.7896148591072],[-122.356002772131,47.7896126995103],[-122.356002701942,47.7896110820563],[-122.356002669192,47.7896103304229],[-122.356002560969,47.7896078723452],[-122.356002482671,47.7896060696806],[-122.356002412019,47.7896044819198],[-122.356002336772,47.7896027376889],[-122.356002262039,47.7896010564235],[-122.356002183768,47.7895992546581],[-122.356002129637,47.7895980022298],[-122.35600204253,47.7895960359545],[-122.356001989455,47.7895948194962],[-122.356001905162,47.7895929035613],[-122.356001846343,47.7895915369456],[-122.356001763079,47.7895896560816],[-122.356001715869,47.7895885483974],[-122.356001603512,47.7895859950166],[-122.356001586978,47.7895856138044],[-122.35600148215,47.7895832258505],[-122.356001461351,47.789582744839],[-122.356001359546,47.7895804144196],[-122.356001327614,47.7895796906631],[-122.35600123092,47.7895774888191],[-122.35600119022,47.7895765573708],[-122.356001096761,47.7895744202551],[-122.35600105198,47.7895733953022],[-122.356000959367,47.7895712869627],[-122.356000921057,47.7895703914667],[-122.356000914612,47.7895702629091],[-122.356000911007,47.7895701855911],[-122.356000820031,47.7895681330053],[-122.35600080697,47.7895678246148],[-122.356000782302,47.7895672572929],[-122.35600068941,47.7895651849413],[-122.356000637154,47.7895639963599],[-122.356000551553,47.789562081342],[-122.356000490343,47.7895606787739],[-122.356000403025,47.7895587053046],[-122.356000337035,47.7895572308319],[-122.356000254009,47.7895553580612],[-122.356000201779,47.789554170379],[-122.356000112705,47.7895521825394],[-122.356000068927,47.7895511917582],[-122.356000063922,47.7895510667798],[-122.35600001259,47.7895499096722],[-122.356000005644,47.7895497640288],[-122.355999963107,47.7895488155124],[-122.355999954946,47.7895486285033],[-122.355999950944,47.7895485376966],[-122.355999939151,47.7895482724702],[-122.355999919857,47.7895478427162],[-122.3559999148,47.7895477159392],[-122.355999905926,47.7895475046503],[-122.35599987427,47.7895468357661],[-122.355999855465,47.7895463772181],[-122.355999829105,47.7895458432041],[-122.355999807871,47.7895453019249],[-122.355999783,47.7895449550088],[-122.355999746072,47.789544333874],[-122.355999708712,47.7895434707511],[-122.355999702915,47.7895433187951],[-122.35599967583,47.7895427146215],[-122.355999656576,47.7895422407862],[-122.355999630336,47.7895416653887],[-122.355999600847,47.7895409793831],[-122.355999554163,47.7895399805441],[-122.355999520013,47.7895391812504],[-122.355999485678,47.7895383756619],[-122.355999469118,47.7895379935504],[-122.355999443233,47.789537475723],[-122.355998656705,47.7895193735576],[-122.355871323455,47.7894019323104],[-122.355873645289,47.7894543213523],[-122.355880084296,47.7895996485951],[-122.35588651016,47.7897447088288],[-122.355888655048,47.7897929800367],[-122.355890805475,47.7898413033476],[-122.355878087763,47.7898298527295],[-122.355778825171,47.7897404735892],[-122.355744551231,47.7897096135179],[-122.35566245697,47.7895842001815],[-122.35563263102,47.7895566542951],[-122.355609363901,47.7895351670616],[-122.35558949554,47.7895168182146],[-122.355572103869,47.7895007564276],[-122.355570514943,47.7894992887641],[-122.355567769306,47.7894967524973],[-122.355565711133,47.7894948520823],[-122.355535307663,47.7894667741079],[-122.355479279859,47.7894150299614],[-122.355458296025,47.7893956497221],[-122.355426506814,47.7893662911632],[-122.355415713779,47.7893563243766],[-122.355291732392,47.789241821813],[-122.355223192796,47.7891785206657],[-122.355200303347,47.7891573818637],[-122.355118276257,47.7890816254705],[-122.355096200513,47.7890612368695],[-122.354968128982,47.7889429561654],[-122.354941894546,47.7889187267674],[-122.354861487272,47.7888444653463],[-122.354859647334,47.7888427671209],[-122.354847004895,47.788831090489],[-122.354841609836,47.7888261075001],[-122.354834539452,47.7888195770246],[-122.354792176309,47.7887804527482],[-122.354769446379,47.7887594610727],[-122.354762566743,47.7887531070726],[-122.354739226205,47.7887315495796],[-122.354703713985,47.7886987517681],[-122.354697700157,47.7886931976718],[-122.354690745063,47.7886867736042],[-122.354659000662,47.788657456526],[-122.35463883937,47.7886388370448],[-122.354636198113,47.7886363974228],[-122.354596988253,47.7886001835675],[-122.354590096307,47.7885938180266],[-122.354579395503,47.7885839353984],[-122.354572599606,47.7885776585374],[-122.354544131813,47.7885513663265],[-122.35454004443,47.7885475920635],[-122.354523794976,47.788532584537],[-122.354432076191,47.7884478743817],[-122.354402486214,47.7884205463483],[-122.354384542332,47.7884039735728],[-122.354381884665,47.7884015197702],[-122.354325325373,47.7883492801847],[-122.354309117209,47.7883343107621],[-122.354276399038,47.7883040925554],[-122.354265886332,47.7882943837161],[-122.354261442615,47.7882902012715],[-122.354230707263,47.7882612727621],[-122.354229172499,47.7882598286487],[-122.354213749239,47.7882453120546],[-122.354207755668,47.7882396713017],[-122.354180737776,47.7882129638654],[-122.354157423488,47.7881899179627],[-122.354151704329,47.7881841206191],[-122.354134674781,47.7881668573254],[-122.354111020257,47.7881419492651],[-122.354096583451,47.7881267466125],[-122.35406370413,47.7880907514317],[-122.354059534925,47.7880861874893],[-122.354023545873,47.788045202225],[-122.354004210661,47.7880222805191],[-122.35398862331,47.7880038024219],[-122.353954775449,47.7879619951685],[-122.353946188105,47.7879509319426],[-122.353922017442,47.7879197964568],[-122.353918872557,47.7879155661155],[-122.35390922816,47.7879025963079],[-122.353905200887,47.7878971812429],[-122.353905054066,47.7878969996789],[-122.353904789515,47.7878966271671],[-122.353902532164,47.7878935293031],[-122.353873921117,47.7878542692363],[-122.353844037149,47.7878113845135],[-122.353843895006,47.7878111803969],[-122.35381498939,47.7877677437748],[-122.35381160113,47.7877624056596],[-122.353787211385,47.7877239745694],[-122.353766725461,47.7876900713783],[-122.353760570701,47.7876798852467],[-122.353735078457,47.7876354909525],[-122.35373031972,47.7876267525858],[-122.353710738918,47.7875908006271],[-122.353699209257,47.7875684334448],[-122.353698941826,47.7875679170343],[-122.353694555569,47.7875594076035],[-122.353692017778,47.7875544836734],[-122.353687559253,47.7875458312679],[-122.353665553226,47.7875005970862],[-122.353664654794,47.7874986371153],[-122.353644715865,47.7874551107432],[-122.35362731582,47.7874146326085],[-122.353625060933,47.78740938645],[-122.353610568379,47.7873733289406],[-122.3536065928,47.7873634367434],[-122.353589314631,47.7873172786743],[-122.353587601277,47.7873123365678],[-122.353586697267,47.7873097307543],[-122.353573238749,47.7872709228743],[-122.353572467767,47.7872684835155],[-122.353555990853,47.787216324304],[-122.353554594436,47.7872119024469],[-122.353551504886,47.7871999950305],[-122.353539916122,47.787155343607],[-122.353536803346,47.7871429624077],[-122.353532534431,47.7871259771304],[-122.353528113009,47.7871083884494],[-122.35351752605,47.78706129925],[-122.353508162467,47.7870140948047],[-122.353500823318,47.7869714702817],[-122.353500099391,47.7869672661708],[-122.353499896579,47.7869659941309],[-122.353485112856,47.7868730035874],[-122.353484517207,47.7868692592658],[-122.353479033068,47.7868347694604],[-122.35345892615,47.7867083134144],[-122.353457266515,47.786697871306],[-122.353452502453,47.7866679086201],[-122.353430449813,47.7865292150598],[-122.353430034029,47.7865265973474],[-122.353425027838,47.7864951130536],[-122.353418702494,47.7864553294746],[-122.353396951352,47.7863185363576],[-122.353396036373,47.7863127775734],[-122.353379158703,47.7862066275854],[-122.353378576195,47.7862029667515],[-122.353375805652,47.7861855450033],[-122.353375550211,47.7861839345128],[-122.353362739557,47.7861033673188],[-122.353362039103,47.7860989613829],[-122.353360967307,47.7860922241168],[-122.353350403403,47.7860257804948],[-122.353343416915,47.7859818351451],[-122.35333783658,47.7859467438784],[-122.353328948508,47.7858908393064],[-122.353327604935,47.7858823892118],[-122.353323655983,47.7858575515139],[-122.353321193207,47.7858420670147],[-122.353321067059,47.7858412698448],[-122.353315131369,47.7858039360948],[-122.353303963627,47.78573369158],[-122.353291624295,47.7856560814025],[-122.35328144697,47.7855920732563],[-122.353281006732,47.7855893038357],[-122.353280281639,47.7855847398969],[-122.35327632959,47.7855598860457],[-122.353266620256,47.7854988187738],[-122.353266587402,47.7854986087037],[-122.353264818258,47.785487478953],[-122.353260124918,47.7854579633211],[-122.353257159512,47.7854393099061],[-122.353254258165,47.7854210658582],[-122.35325396202,47.7854192049195],[-122.353245172425,47.7853639215568],[-122.353240447826,47.7853342039292],[-122.353240169601,47.7853324534032],[-122.353239346483,47.7853272772385],[-122.353234795401,47.78529865212],[-122.353229679702,47.7852664747807],[-122.353224547795,47.7852341996],[-122.353223071615,47.7852249128377],[-122.353222371264,47.7852205095984],[-122.353222287474,47.7852197001698],[-122.353220112572,47.7851985965017],[-122.353215740387,47.785155944159],[-122.353206249603,47.785155934662],[-122.353205673058,47.7851559378391],[-122.35320397785,47.7851559379158],[-122.353203681558,47.7851559391613],[-122.353203498576,47.7851559353],[-122.35320287936,47.7851559399446],[-122.353201823436,47.7851559369087],[-122.353199591949,47.7851559477229],[-122.353199285009,47.7851559500097],[-122.353197264103,47.7851559499241],[-122.353196451257,47.7851559517487],[-122.353194765389,47.785155951701],[-122.353193634824,47.7851559523575],[-122.35319165133,47.7851559535729],[-122.353189917428,47.7851559541645],[-122.353188834897,47.7851559541816],[-122.35318628009,47.7851559549058],[-122.353185433834,47.7851559553759],[-122.353181927336,47.7851559570741],[-122.353181617649,47.7851559566986],[-122.353177786786,47.7851559582166],[-122.353177236847,47.7851559583405],[-122.353174109419,47.7851559594903],[-122.353173555478,47.7851559596675],[-122.353170470773,47.7851559611481],[-122.353169264127,47.7851559619175],[-122.353166039243,47.7851559625652],[-122.353165287774,47.7851559635726],[-122.353162203043,47.7851559641537],[-122.35316142753,47.7851559645815],[-122.353157655403,47.7851559662165],[-122.353157172205,47.7851559663515],[-122.353154027431,47.7851559677316],[-122.353152560493,47.7851559683674],[-122.353150256611,47.7851559684494],[-122.353148915149,47.785155969214],[-122.35314606269,47.7851559703012],[-122.353145189748,47.7851559711263],[-122.353144870721,47.785155970875],[-122.353141935509,47.785155972164],[-122.353141401582,47.7851559720747],[-122.353139839883,47.785155973072],[-122.35313484774,47.7851559747538],[-122.353133284679,47.7851559748696],[-122.353128400666,47.7851559769109],[-122.353125927304,47.7851559783488],[-122.353123216332,47.7851559793512],[-122.353114644252,47.7851559819067],[-122.353113500343,47.7851559827401],[-122.353111547539,47.7851559835456],[-122.353108910138,47.7851559898656],[-122.353104521331,47.7851559916112],[-122.353090931808,47.785155997981],[-122.353087054219,47.7851559992184],[-122.353081911275,47.7851560020055],[-122.353063894224,47.7851560097325],[-122.353043777545,47.7851560184163],[-122.353018654044,47.7851560289685],[-122.35300808382,47.785156033823],[-122.352968539218,47.7851560509959],[-122.352962152214,47.7851560532437],[-122.352926266298,47.7851560693836],[-122.352915637339,47.7851560741117],[-122.352873979738,47.7851560914873],[-122.352867672844,47.7851560944628],[-122.352823759476,47.7851561139548],[-122.352818330861,47.785156116034],[-122.352782280749,47.7851561316152],[-122.352767708794,47.7851561375272],[-122.352760771878,47.7851561407849],[-122.35275314487,47.78515614423],[-122.352747586777,47.7851561462298],[-122.352734212154,47.7851561523961],[-122.35271288349,47.7851561618573],[-122.35268868633,47.7851561717042],[-122.352670662608,47.785156179458],[-122.352654203281,47.7851561870819],[-122.352643642396,47.7851561917784],[-122.352624945928,47.7851561994813],[-122.352617276197,47.7851562025863],[-122.35257869799,47.7851562193588],[-122.352565447482,47.7851562247533],[-122.3525396566,47.7851562359843],[-122.352521356574,47.7851562437927],[-122.352515313975,47.7851562468304],[-122.35250188462,47.7851562527982],[-122.352498056426,47.7851562542578],[-122.352485556079,47.7851562595572],[-122.35246109465,47.7851562701733],[-122.352439938163,47.7851562790919],[-122.352412146415,47.7851562908279],[-122.352399834282,47.7851562963124],[-122.35237575195,47.785156307264],[-122.352365566132,47.7851563114425],[-122.352339146562,47.7851563228963],[-122.352313583922,47.7851563337383],[-122.352292423431,47.7851563426828],[-122.352276670207,47.7851563498543],[-122.352252586514,47.7851563598983],[-122.352237682214,47.7851563665657],[-122.35220374374,47.7851563808598],[-122.352192288538,47.7851563857171],[-122.352188033212,47.785156387451],[-122.352185175416,47.7851563885852],[-122.352163164667,47.7851563980216],[-122.352145821696,47.7851564056326],[-122.352119512898,47.7851564164615],[-122.352099948825,47.7851564248247],[-122.352074484949,47.785156435199],[-122.352062441114,47.7851564406766],[-122.3520480507,47.7851564467806],[-122.352036643533,47.7851564509834],[-122.352031961077,47.7851564529955],[-122.352024386133,47.785156456599],[-122.352013853268,47.7851564608645],[-122.352005988677,47.7851564647212],[-122.351999904689,47.7851564673826],[-122.351971978125,47.7851564790055],[-122.351966498807,47.7851564817186],[-122.351938569574,47.7851564933689],[-122.35193051274,47.785156496179],[-122.351906678665,47.7851565064284],[-122.351896948025,47.7851565108081],[-122.351872315754,47.7851565217712],[-122.351871876588,47.7851565213151],[-122.351852291166,47.7851565299198],[-122.351835737051,47.7851565368872],[-122.351835197787,47.7851565368627],[-122.351821089014,47.7851565427907],[-122.351818132454,47.7851565443296],[-122.351815577674,47.7851565459224],[-122.35180473779,47.785156549754],[-122.35180186932,47.7851565510205],[-122.351784771964,47.7851565589084],[-122.35177238239,47.785156563556],[-122.351766270382,47.7851565665776],[-122.351753535121,47.7851565722223],[-122.351745262,47.7851565733977],[-122.351743988534,47.7851565714424],[-122.351729528606,47.7851565739328],[-122.351727354203,47.7851565740633],[-122.351717046834,47.7851565753025],[-122.351714141056,47.7851565788622],[-122.351698399814,47.7851565848949],[-122.351659934029,47.7851566115567],[-122.351666827188,47.7853279476467],[-122.35166723773,47.7853381401052],[-122.351668174678,47.7853614337021],[-122.351670633717,47.7854225354318],[-122.351673721753,47.7854992846156],[-122.351673726721,47.785499408695],[-122.351677169746,47.7855849539894],[-122.351677492796,47.7855929786645],[-122.351678590607,47.7856202616675],[-122.351681242148,47.7856861593271],[-122.351687512302,47.7858419567293],[-122.351687518981,47.7858421392602],[-122.351689312298,47.7858867025142],[-122.351691426495,47.7859392616844],[-122.351696776201,47.7860722366616],[-122.351697295073,47.7860851255929],[-122.351700032764,47.7861531433723],[-122.351701300338,47.7861846279689],[-122.3517013103,47.7861848770269],[-122.351702244725,47.7862080833944],[-122.351705935543,47.7862997633914],[-122.351706454051,47.786312639733],[-122.351710987252,47.7864252936025],[-122.351712568465,47.7864645717998],[-122.351715092639,47.7865273018425],[-122.351715106042,47.7865276228231],[-122.351720387609,47.7866589047457],[-122.35172198309,47.7866985785786],[-122.351722193867,47.7867038168716],[-122.351722464733,47.7867105603036],[-122.351728878424,47.7868699748952],[-122.351728903342,47.7868705979897],[-122.351729709652,47.7868906133634],[-122.351732419568,47.7869579532066],[-122.351734400165,47.7870071775165],[-122.351735781009,47.7870414349852],[-122.351737159186,47.7870756924893],[-122.351738786599,47.7871161368574],[-122.351742376966,47.7872053847544],[-122.351742669649,47.7872126451686],[-122.35174270532,47.7872135442987],[-122.351751263508,47.7874261797557],[-122.351735236825,47.7874262624483],[-122.351718297824,47.7874262790056],[-122.351631848934,47.7874263661855],[-122.351510069744,47.7874264876744],[-122.35118296628,47.787426650754],[-122.350855883785,47.7874268908834],[-122.350827773402,47.7874269118502],[-122.350538593627,47.7874271214001],[-122.350221011402,47.7874273603131],[-122.350075444545,47.7874274697429],[-122.349903453192,47.7874275980238],[-122.349789379196,47.7874276837018],[-122.349585913687,47.7874278355026],[-122.349517285587,47.7874278859336],[-122.349268394194,47.7874280718325],[-122.34922181632,47.7874281063989],[-122.348950893405,47.7874283079309],[-122.348633416631,47.7874285428278],[-122.34831596526,47.7874287783041],[-122.3479985406,47.7874290134431],[-122.34768114401,47.7874292491266],[-122.347400127309,47.7874294639061],[-122.347121885719,47.7874296753857],[-122.346379156668,47.7874302381786],[-122.346297774456,47.7874290244199],[-122.346259552613,47.7874284549683],[-122.34617568249,47.7874272048197],[-122.346172740512,47.7872126110645],[-122.346169593573,47.7869831207926],[-122.345654560112,47.7869819014031],[-122.345600297161,47.7869817727067],[-122.345602613134,47.786948907417],[-122.345282979413,47.7869493136395],[-122.34513707722,47.7869494985981],[-122.344952970251,47.7869497321872],[-122.344953479084,47.7869773540571],[-122.344505985636,47.7869792079249],[-122.344404271299,47.7869796293267],[-122.344262526815,47.7869802160389],[-122.344262123604,47.786950663125],[-122.343890795089,47.7869511611941],[-122.343594071336,47.7869515591528],[-122.343494342883,47.7869519192915],[-122.342922072458,47.7869539841984],[-122.342922559432,47.7869813967446],[-122.342879432196,47.7869815540307],[-122.342800532011,47.786981842395],[-122.342698501259,47.786982215183],[-122.342351337189,47.7869834818116],[-122.342245581263,47.7869838683445],[-122.342247768359,47.7871110090277],[-122.34224913648,47.787190506798],[-122.342250691499,47.78728096915],[-122.342252247858,47.7873714314837],[-122.342253804196,47.7874618929176],[-122.342255360565,47.78755235525],[-122.34225691694,47.7876428175819],[-122.342258471986,47.7877332799306],[-122.342260028372,47.7878237422612],[-122.342261584763,47.7879142045911],[-122.34226314116,47.7880046669204],[-122.342264696228,47.7880951292667],[-122.342266252635,47.7881855915946],[-122.342269035367,47.7883473275969],[-122.342275390526,47.7887167903204],[-122.342048696734,47.7887170214899],[-122.341702917698,47.7887175642034],[-122.341615415091,47.7887177017723],[-122.34151716568,47.7887178552833],[-122.34114759715,47.7887184334673],[-122.340904569912,47.7887188132862],[-122.339850830204,47.7887204526972],[-122.339654128508,47.788720758375],[-122.339624421702,47.7887208048322],[-122.339582627114,47.7887742887499],[-122.339550799379,47.7888150161635],[-122.339530538366,47.7888431000184],[-122.339519044456,47.7888590333498],[-122.339476525583,47.7889179675697],[-122.33929160209,47.7891742904794],[-122.339205235148,47.7892940033369],[-122.339163767886,47.7893514805993],[-122.339096460667,47.7894447725964],[-122.338956744596,47.7896384307269],[-122.338909951167,47.7897032891806],[-122.338894935507,47.7897241015387],[-122.338647969253,47.7900664102222],[-122.338640032041,47.7900774108323],[-122.338341093238,47.7904917486265],[-122.338307719262,47.7905380060994],[-122.338301415575,47.7905467424476],[-122.338268008112,47.7905930444295],[-122.338261782732,47.7906016735903],[-122.338223945173,47.7906541161498],[-122.338201374012,47.7906853994874],[-122.33810186962,47.7908233107795],[-122.338060728378,47.790880329907],[-122.337848060083,47.7911750788936],[-122.337810007392,47.7912278192063],[-122.337565439365,47.7915667750946],[-122.33735888464,47.7918530429701],[-122.337240332765,47.7920173449263],[-122.337126428601,47.7921752037713],[-122.337046525094,47.7922859407614],[-122.337085128992,47.7922859415625],[-122.33715454581,47.7922857596578],[-122.337318971879,47.792285327623],[-122.33740030124,47.7922851146103],[-122.33798194899,47.7922835852108],[-122.338254928111,47.7922828674669],[-122.338713703309,47.7922816528336],[-122.338789313977,47.7922814530502],[-122.339195589388,47.7922803753739],[-122.339610444112,47.7922792739403],[-122.339900659168,47.7922785039179],[-122.34096594145,47.7922756717651],[-122.341087146481,47.7922753488505],[-122.341086523617,47.7923575482868],[-122.341090464467,47.7924397720251],[-122.341093786514,47.7927065302354],[-122.341096937312,47.7929595474869],[-122.341099850445,47.7931934180514],[-122.340978859188,47.7931940502904],[-122.340857155122,47.7931946855145],[-122.340585399424,47.7933723601835],[-122.340523629252,47.7934101050446],[-122.340456586706,47.7934457730087],[-122.340387768856,47.7934775034168],[-122.340315000376,47.7935063784072],[-122.340223751763,47.7935366082288],[-122.340129125227,47.7935616855519],[-122.340031763325,47.7935814399619],[-122.339932315082,47.7935957396437],[-122.339811195742,47.7936055500559],[-122.339740094411,47.7936089286683],[-122.339617880215,47.7936147383973],[-122.339495731305,47.7936205444353],[-122.339069609588,47.7936407925568],[-122.338816945723,47.7936527996966],[-122.338776488663,47.7936556342527],[-122.33870542649,47.7936651478818],[-122.338635847099,47.793680441648],[-122.338569478972,47.7937012273868],[-122.338508935275,47.7937264199248],[-122.338461132235,47.7937554486227],[-122.338425746981,47.7937906198311],[-122.338403266426,47.7938317823084],[-122.338396366104,47.7938740186637],[-122.338398198203,47.7939978452842],[-122.338276142634,47.7939980244685],[-122.338278979044,47.7941903154747],[-122.338285756591,47.794650304562],[-122.338290626391,47.7951015062858],[-122.338168555976,47.795101355363],[-122.337591598923,47.795103122174],[-122.337240794573,47.7951041955995],[-122.337042357959,47.7951048026819],[-122.336920304078,47.7951051746742],[-122.336798250169,47.7951055456368],[-122.336310676906,47.7951070359209],[-122.336249050577,47.7951072235834],[-122.335700217977,47.79510889496],[-122.335702497667,47.7952832218982],[-122.335705035475,47.7954477038113],[-122.335707344401,47.7955973750162],[-122.335707573299,47.7956121857223],[-122.335710111165,47.7957766685304],[-122.335712649021,47.795941150437],[-122.335713847113,47.7960211999958],[-122.335715256192,47.7961034624937],[-122.335719560935,47.7963988138824],[-122.335850543774,47.7963984246892],[-122.335885512227,47.7963983208365],[-122.335906614248,47.7963982581878],[-122.33594593873,47.7963981410813],[-122.335963676579,47.7963980876037],[-122.336005781836,47.7963979626736],[-122.336024702493,47.7963979062168],[-122.336049156649,47.7963978336164],[-122.336126051444,47.7963976043841],[-122.33615006906,47.7963975330089],[-122.336248479726,47.7963972400482],[-122.336318012092,47.796397032015],[-122.336342048392,47.7963969603535],[-122.336443237162,47.7963966594479],[-122.336573969011,47.7963962700298],[-122.336607671883,47.7963961691215],[-122.336634986887,47.796396087523],[-122.336717331071,47.7963958419311],[-122.336899458283,47.7963952990838],[-122.336911151383,47.7963952647735],[-122.33692792273,47.7963952148756],[-122.336961402672,47.7963951149989],[-122.337136103367,47.7963945930929],[-122.337147545459,47.7963945584653],[-122.337224946209,47.7963943272279],[-122.337233065581,47.796394303964],[-122.337324506307,47.796394030797],[-122.337374126153,47.7963938828598],[-122.337437181199,47.7963936937844],[-122.337538208421,47.7963933922371],[-122.337550435483,47.7963933553259],[-122.33758183151,47.7963932611266],[-122.337718516029,47.7963928531598],[-122.337875936756,47.7963923823381],[-122.337883749475,47.7969269417818],[-122.33780233493,47.7969271849523],[-122.337643779165,47.7969276589079],[-122.337558218128,47.7969279142442],[-122.337546016297,47.7969279508221],[-122.337372185537,47.7969284699706],[-122.337314102681,47.7969286438958],[-122.337282437996,47.7969287388566],[-122.337135086822,47.7969291787939],[-122.337069985892,47.7969293730434],[-122.337020018432,47.7969295218204],[-122.336909969645,47.7969298508178],[-122.33682587043,47.7969301016516],[-122.33664904126,47.7969306285888],[-122.336609027515,47.7969307478086],[-122.336581753602,47.7969308288563],[-122.336520728397,47.7969310105232],[-122.336337638126,47.7969315564209],[-122.33633033971,47.7969315778112],[-122.336319997521,47.7969316086744],[-122.336215582375,47.7969319195316],[-122.336039293888,47.7969324447063],[-122.335727348729,47.7969333726089],[-122.335729894882,47.7971057852678],[-122.33573232335,47.797270265899],[-122.335734751807,47.7974347456288],[-122.335737180254,47.7975992244572],[-122.335739608768,47.7977637050819],[-122.335740823685,47.7978459449351],[-122.335737116941,47.7979266518468],[-122.335742686218,47.7982557710417],[-122.335746924099,47.7985061855415],[-122.33575118054,47.7987577458831],[-122.335756006638,47.7990188722694],[-122.335758930802,47.7991771391162],[-122.33576290822,47.7993923448823],[-122.335766548211,47.7995893174933],[-122.336199073758,47.7995875361541],[-122.336284396031,47.7995871842809],[-122.336499381716,47.7995862475721],[-122.336801188256,47.7995849303755],[-122.336903980882,47.79958447129],[-122.337317466229,47.7995826224296],[-122.337366195716,47.7995824223898],[-122.33773629195,47.7995808996355],[-122.337834979125,47.7995804937928],[-122.33783757976,47.7995804838217],[-122.337939730312,47.7995800754432],[-122.338353050544,47.7995784247195],[-122.338461572939,47.7995779831808],[-122.338552426374,47.7995776142904],[-122.33887110617,47.7995763166204],[-122.339206209874,47.7995749229453],[-122.339388982885,47.7995741617511],[-122.339389384724,47.7995741600503],[-122.339568904312,47.7995734126852],[-122.339907699297,47.7995720015523],[-122.340163467825,47.7995709652335],[-122.340426110391,47.7995699015004],[-122.3404733315,47.7995697137428],[-122.340944433146,47.799567838944],[-122.341066518274,47.7995678555027],[-122.341189112118,47.7995678724111],[-122.341451686501,47.7995668504003],[-122.341698288624,47.7995658903089],[-122.34195386479,47.799564894802],[-122.34221906647,47.7995638606095],[-122.342483141394,47.799562830795],[-122.343089533215,47.7995608802059],[-122.343776044199,47.7995586683245],[-122.34507089765,47.7995543592419],[-122.345111585517,47.799554163389],[-122.345152262733,47.7995539685623],[-122.345437073819,47.7995525980374],[-122.345504579012,47.7995522736684],[-122.345701542331,47.7995513261704],[-122.345986353387,47.7995499542759],[-122.346305468222,47.7995487317514],[-122.346488561359,47.7995480008325],[-122.346610625253,47.7995475142659],[-122.346671669198,47.7995472703248],[-122.346976828329,47.7995460329412],[-122.347123409648,47.7995454385758],[-122.347265629439,47.7995448613587],[-122.347553941919,47.7995436910265],[-122.347636152523,47.7995433575353],[-122.347851858547,47.7995424816613],[-122.348148878006,47.7995412744231],[-122.348282860239,47.7995408052031],[-122.348661621253,47.7995394784451],[-122.349074766711,47.7995379990413],[-122.349174414105,47.7995376426228],[-122.349229873768,47.7995374246557],[-122.349687296657,47.7995356314825],[-122.350200467186,47.7995335593379],[-122.350634144065,47.7995318159827],[-122.350713350985,47.7995314976928],[-122.351059193659,47.7995301397549],[-122.351225388445,47.7995294863747],[-122.351451989185,47.7995285956364],[-122.351635407158,47.7995278746371],[-122.351736803807,47.7995276141732],[-122.351858924897,47.7995273002571],[-122.351903975854,47.7995271852071],[-122.352027122277,47.7995268682725],[-122.352384285766,47.7995255024104],[-122.352698311704,47.7995243000227],[-122.352992989021,47.7995231707185],[-122.353257284785,47.7995224674936],[-122.353601244536,47.7995215506302],[-122.35364294964,47.7995214389516],[-122.353968996656,47.7995205687228],[-122.354091061655,47.7995203440266],[-122.354213126626,47.7995201183007],[-122.354622687845,47.7995182446429],[-122.354907502946,47.7995172300764],[-122.355171974691,47.7995162879776],[-122.355508832155,47.7995150794785],[-122.355824483807,47.799513945782],[-122.35613083824,47.7995128452229],[-122.356124560289,47.7991653738563],[-122.356119453045,47.7988826683067],[-122.356118263847,47.7988168609853],[-122.356112083412,47.7984747040655],[-122.356111979426,47.7984689362868],[-122.356110597245,47.7983924667222],[-122.356109112391,47.7983102284614],[-122.356105677622,47.7981200987124],[-122.356103955811,47.7980248373324],[-122.356099394199,47.7977723386108],[-122.35609493309,47.7975253513229],[-122.35609312261,47.7974251603871],[-122.356090719152,47.7972920968009],[-122.356086864293,47.7970786584806],[-122.356085617637,47.7970096646168],[-122.356080613529,47.7967326836332],[-122.356080007093,47.7966990797829],[-122.356076023501,47.7964785731753],[-122.356074363458,47.7963866385989],[-122.356068100532,47.7960399712009],[-122.356066615761,47.7959577311259],[-122.356065145921,47.7958764084483],[-122.356065109601,47.7958740807551],[-122.356065081476,47.7958722594301],[-122.356065072962,47.7958718331309],[-122.356065062008,47.7958710965006],[-122.356065036206,47.79586944517],[-122.356065015962,47.7958681194223],[-122.356064988296,47.795867222885],[-122.356064982248,47.7958663350556],[-122.356064944535,47.7958649600626],[-122.356064916007,47.7958635795494],[-122.356064880791,47.7958615622051],[-122.356064840727,47.7958594252781],[-122.356064819581,47.795858250676],[-122.356064775375,47.795855790846],[-122.35606475444,47.795854623438],[-122.356064723816,47.7958529442839],[-122.356064710945,47.7958522787479],[-122.356064687424,47.795850932353],[-122.356064639772,47.7958483097404],[-122.356064616157,47.7958470056282],[-122.356064570947,47.7958445116266],[-122.356064567621,47.7958443074606],[-122.356064523521,47.7958418512276],[-122.356064443977,47.7958375062968],[-122.356064312547,47.7958301672732],[-122.356064166345,47.7958220979673],[-122.356064044496,47.7958153579528],[-122.356063906821,47.7958077608258],[-122.356063747209,47.795798871259],[-122.356063619276,47.7957917876765],[-122.356063485587,47.7957844171967],[-122.356063336852,47.7957761707024],[-122.356063236519,47.7957706178794],[-122.356063187864,47.7957679610953],[-122.356063127,47.7957645703962],[-122.356063025441,47.795758930328],[-122.356062882526,47.7957510184091],[-122.356062646869,47.7957379484925],[-122.356062444753,47.7957267933877],[-122.356062275253,47.7957174307605],[-122.356061995444,47.7957019028124],[-122.356061836016,47.7956931104004],[-122.356061536077,47.7956764879014],[-122.356061360665,47.7956667421214],[-122.3560612524,47.7956607827827],[-122.356060981832,47.7956457512932],[-122.356060875019,47.7956398414135],[-122.356060656627,47.7956278139088],[-122.356060441577,47.7956158547294],[-122.35606023463,47.7956044442011],[-122.356059983677,47.7955905351569],[-122.356059819828,47.7955814558299],[-122.356059524273,47.7955650734669],[-122.35605938656,47.7955574295608],[-122.356059205485,47.7955474454608],[-122.35605916425,47.7955451322268],[-122.356058877222,47.7955292220426],[-122.356058823644,47.7955262612576],[-122.356058768205,47.7955231916451],[-122.356058718258,47.7955203999374],[-122.356058554172,47.795511312517],[-122.35605827571,47.7954959212906],[-122.356058126236,47.7954876496171],[-122.35605791017,47.7954757012464],[-122.356057884061,47.7954742667247],[-122.356057203961,47.7954365625546],[-122.35605678384,47.7954133475537],[-122.356056310013,47.7953870764112],[-122.356055653422,47.7953507636163],[-122.356055263505,47.7953291225211],[-122.356055255901,47.7953287726762],[-122.356054665483,47.7952960313301],[-122.356054254737,47.7952733172838],[-122.356053947371,47.7952563053545],[-122.356053519955,47.7952326145594],[-122.356052939913,47.7952004991998],[-122.356052690481,47.7951866872923],[-122.356052605805,47.7951820311665],[-122.356052441616,47.7951729401489],[-122.356052143372,47.7951564660616],[-122.356051857998,47.7951406575103],[-122.35605177896,47.795136238805],[-122.356051413663,47.7951160268535],[-122.356051201216,47.7951042925403],[-122.356050989364,47.7950925330301],[-122.35605074182,47.7950788308492],[-122.356050426734,47.795061419598],[-122.356050217616,47.7950497985905],[-122.356049895641,47.795031970914],[-122.35604982167,47.7950279065855],[-122.356049798109,47.7950266042716],[-122.356049542133,47.795012387629],[-122.356049410177,47.79500512148],[-122.356049191396,47.7949929896257],[-122.356049086908,47.79498724974],[-122.356048960069,47.794981203387],[-122.356048869897,47.7949751781357],[-122.356048789363,47.7949709357728],[-122.356048732608,47.7949676394774],[-122.356048666533,47.7949639348855],[-122.356048597922,47.7949601439654],[-122.356048530975,47.7949564096982],[-122.356048468449,47.794952962346],[-122.356048405145,47.7949494430359],[-122.356048333247,47.7949454947287],[-122.356048285742,47.7949428316318],[-122.356048200157,47.7949380990516],[-122.356048148163,47.7949352830817],[-122.356048057206,47.7949302312134],[-122.356048017067,47.7949280007282],[-122.356047917214,47.7949224640914],[-122.356047868468,47.7949197587296],[-122.356047756959,47.7949135979224],[-122.356047727986,47.7949120204016],[-122.356047649278,47.7949076583669],[-122.356047596467,47.7949047236601],[-122.356047501207,47.7948994343534],[-122.356047463801,47.794897342371],[-122.35604737258,47.7948922815101],[-122.356047314463,47.7948890751932],[-122.35604725715,47.7948859417337],[-122.35604717963,47.7948816201654],[-122.356047110676,47.794877817555],[-122.35604706263,47.7948751814534],[-122.356046975079,47.7948703364488],[-122.356046923087,47.7948674296188],[-122.356046832711,47.794862397534],[-122.356046787899,47.794859917021],[-122.356046691806,47.7948546448179],[-122.356046685537,47.7948542949551],[-122.356046662425,47.7948530079285],[-122.356046563508,47.7948475486453],[-122.356046516427,47.7948448999363],[-122.356046483244,47.7948430426945],[-122.356046354999,47.7948359483204],[-122.356046334764,47.7948348501726],[-122.356046184806,47.7948265164323],[-122.356046165455,47.7948254938395],[-122.356046017397,47.7948173157056],[-122.356045891529,47.7948103022643],[-122.356045714565,47.7948005034275],[-122.356045568817,47.7947924494083],[-122.356045447449,47.7947857255797],[-122.356045347424,47.7947802285278],[-122.356045341577,47.7947798930531],[-122.356045202733,47.7947722104786],[-122.356045076718,47.7947652375215],[-122.356044901431,47.7947555412173],[-122.356044794081,47.7947495674724],[-122.356044724626,47.7947457477761],[-122.35604458936,47.7947382324804],[-122.356044522598,47.794734504508],[-122.356044308531,47.7947226694603],[-122.356044125773,47.7947125369473],[-122.356043905161,47.7947002971646],[-122.356043719803,47.7946900306452],[-122.356043275171,47.7946654350762],[-122.356043131721,47.7946574592918],[-122.356042511883,47.7946231701163],[-122.356042354218,47.7946143920738],[-122.356041655159,47.7945756778978],[-122.356041277806,47.7945547824065],[-122.356041035771,47.7945414040094],[-122.356040907211,47.7945342988441],[-122.356040353345,47.794503619803],[-122.356040064903,47.7944876610579],[-122.35603989124,47.7944780654877],[-122.356039634767,47.7944638317587],[-122.356039441848,47.7944531713129],[-122.356038705716,47.7944124218247],[-122.356038328735,47.7943915389226],[-122.356037750878,47.7943594972996],[-122.35603710251,47.7943236000099],[-122.356036728962,47.7943029248707],[-122.356036667361,47.7942995089922],[-122.356036130567,47.7942698201882],[-122.356035957025,47.7942601832344],[-122.356035526577,47.7942363431437],[-122.356035086573,47.7942119958031],[-122.356034505629,47.794179848967],[-122.356033793738,47.7941404701528],[-122.356033625003,47.7941310877231],[-122.356033615881,47.7941306407411],[-122.356032669541,47.7940781416147],[-122.356031680606,47.7940234192325],[-122.35603127747,47.7940011000094],[-122.356029540939,47.7939049643815],[-122.356029283534,47.7938907441584],[-122.356028954696,47.7938725459347],[-122.35602752394,47.7937932774219],[-122.356027341042,47.7937831853924],[-122.356027181998,47.7937743147085],[-122.3560264745,47.7937351760292],[-122.356025523737,47.7936825258267],[-122.356025242313,47.7936669421223],[-122.356024876297,47.7936467049894],[-122.356023680978,47.7935804992],[-122.356022439018,47.7935117049688],[-122.356022363851,47.7935075542937],[-122.356021528915,47.7934613482163],[-122.356021254198,47.7934460837821],[-122.356021066091,47.7934356778596],[-122.356020496781,47.7934041084131],[-122.356016782707,47.7931984902229],[-122.356016035869,47.7931571021542],[-122.356015589006,47.793132384266],[-122.356014983154,47.7930988883519],[-122.356014790285,47.7930881838238],[-122.356014368449,47.7930647727279],[-122.356014104295,47.7930501405748],[-122.356012618254,47.7929678969009],[-122.356011428919,47.7929020301797],[-122.356011030631,47.792879966378],[-122.356010741297,47.7928639311765],[-122.356008923764,47.7927633525718],[-122.356008713501,47.7927516919951],[-122.356008514986,47.7927407041664],[-122.356007903375,47.7927068754743],[-122.356007666796,47.7926937731815]]]},"properties":{"OBJECTID":5,"NAME":"EDMONDS","FULL_NAME":"City of Edmonds"}}]}